     2.100          NAVIGATION                              RINEX VERSION / TYPE
fic2rin                                 02/11/2016 00:05:58 PGM / RUN BY / DATE
                                                            END OF HEADER
14 16  2 10 16  0  0.0  .388501212001D-05 -.227373675443D-11  .000000000000D+00
     .680000000000D+02  .289062500000D+02  .497163566001D-08  .235453034773D+01
     .133737921715D-05  .831174990162D-02  .408291816711D-05  .515371267891D+04
     .316800000000D+06  .558793544769D-08  .188431902266D+01 -.139698386192D-06
     .964178075670D+00  .299343750000D+03 -.195185371562D+01 -.829284543030D-08
     .104290058385D-09  .100000000000D+01  .188300000000D+04  .000000000000D+00
     .240000000000D+01  .000000000000D+00 -.931322574615D-08  .680000000000D+02
     .309606000000D+06  .400000000000D+01
15 16  2 10 16  0  0.0 -.296539627016D-03 -.181898940355D-11  .000000000000D+00
     .770000000000D+02  .475000000000D+02  .591417492055D-08  .153858933240D+01
     .267475843430D-05  .804734125268D-02  .443123281002D-05  .515378686333D+04
     .316800000000D+06 -.540167093277D-07  .175156842920D+01  .115483999252D-06
     .930958442064D+00  .280531250000D+03  .481871936403D+00 -.893465787865D-08
     .198222542479D-09  .100000000000D+01  .188300000000D+04  .000000000000D+00
     .240000000000D+01  .000000000000D+00 -.107102096081D-07  .770000000000D+02
     .309606000000D+06  .400000000000D+01
16 16  2 10 16  0  0.0 -.409269705415D-04  .306954461848D-11  .000000000000D+00
     .510000000000D+02  .829687500000D+02  .351657505089D-08 -.289783381891D+01
     .429525971413D-05  .853537395597D-02  .122152268887D-04  .515370967484D+04
     .316800000000D+06 -.391155481339D-07 -.231183299454D+01 -.596046447754D-07
     .990923329786D+00  .162375000000D+03  .323166202107D+00 -.749638368304D-08
     .315727437029D-09  .100000000000D+01  .188300000000D+04  .000000000000D+00
     .240000000000D+01  .000000000000D+00 -.102445483208D-07  .510000000000D+02
     .309606000000D+06  .400000000000D+01
17 16  2 10 16  0  0.0 -.200436916202D-03 -.568434188608D-12  .000000000000D+00
     .340000000000D+02  .261562500000D+02  .450125892407D-08  .241624176653D+01
     .129081308842D-05  .109825260006D-01  .176951289177D-05  .515363317490D+04
     .316800000000D+06  .134110450745D-06 -.128853575141D+01 -.167638063431D-06
     .974939625829D+00  .351312500000D+03 -.195125750628D+01 -.824855787126D-08
     .244295890190D-09  .100000000000D+01  .188300000000D+04  .000000000000D+00
     .240000000000D+01  .000000000000D+00 -.107102096081D-07  .340000000000D+02
     .309606000000D+06  .400000000000D+01
18 16  2 10 16  0  0.0  .482137780637D-03  .397903932026D-11  .000000000000D+00
     .740000000000D+02  .940625000000D+01  .501556606132D-08 -.230869519033D+01
     .456348061562D-06  .166233092314D-01  .132657587528D-04  .515366991234D+04
     .316800000000D+06  .238418579102D-06  .731479899382D+00  .204890966415D-07
     .925195374307D+00  .984375000000D+02 -.191424575202D+01 -.797426073140D-08
     .523593238331D-09  .100000000000D+01  .188300000000D+04  .000000000000D+00
     .240000000000D+01  .000000000000D+00 -.111758708954D-07  .740000000000D+02
     .309606000000D+06  .400000000000D+01
19 16  2 10 16  0  0.0 -.524810981005D-03 -.113686837722D-12  .000000000000D+00
     .290000000000D+02  .176875000000D+02  .476234122777D-08 -.532543996904D+00
     .130757689476D-05  .112507226877D-01  .194087624550D-05  .515518921661D+04
     .316800000000D+06  .111758708954D-06 -.123946652978D+01  .109896063805D-06
     .972035367712D+00  .346281250000D+03  .679575459137D+00 -.865357474184D-08
     .236081262304D-09  .100000000000D+01  .188300000000D+04  .000000000000D+00
     .240000000000D+01  .000000000000D+00 -.153668224812D-07  .290000000000D+02
     .309606000000D+06  .400000000000D+01
21 16  2 10 16  0  0.0 -.509763602167D-03 -.193267624127D-11  .000000000000D+00
     .660000000000D+02 -.110093750000D+03  .521593155020D-08 -.143452339526D+01
    -.523403286934D-05  .231196640525D-01  .691786408424D-05  .515367051697D+04
     .316800000000D+06  .378116965294D-06 -.310352483632D+00  .517815351486D-06
     .935972339233D+00  .226187500000D+03 -.183224095452D+01 -.850714007082D-08
    -.375015620906D-09  .100000000000D+01  .188300000000D+04  .000000000000D+00
     .240000000000D+01  .000000000000D+00 -.116415321827D-07  .660000000000D+02
     .309606000000D+06  .400000000000D+01
23 16  2 10 16  0  0.0 -.159373041242D-03 -.193267624127D-11  .000000000000D+00
     .105000000000D+03  .400625000000D+02  .551987278200D-08  .114413121021D+01
     .234320759773D-05  .104775483487D-01  .412575900555D-05  .515372389603D+04
     .316800000000D+06  .372529029846D-08  .180776727864D+01  .158324837685D-06
     .946149869088D+00  .293812500000D+03 -.261369840868D+01 -.884822570697D-08
     .571452374714D-10  .100000000000D+01  .188300000000D+04  .000000000000D+00
     .240000000000D+01  .000000000000D+00 -.200234353542D-07  .105000000000D+03
     .309606000000D+06  .400000000000D+01
24 16  2 10 16  0  0.0 -.121337361634D-04 -.568434188608D-12  .000000000000D+00
     .840000000000D+02 -.644375000000D+02  .493770567526D-08  .527647792957D+00
    -.327453017235D-05  .424790708348D-02  .847131013870D-05  .515363246727D+04
     .316800000000D+06  .763684511185D-07  .283408280265D+01  .800937414169D-07
     .950823961109D+00  .206531250000D+03  .359302971897D+00 -.835927676886D-08
    -.757174396496D-09  .100000000000D+01  .188300000000D+04  .000000000000D+00
     .240000000000D+01  .000000000000D+00  .232830643654D-08  .840000000000D+02
     .309606000000D+06  .400000000000D+01
25 16  2 10 16  0  0.0 -.114656519145D-03 -.670752342558D-11  .000000000000D+00
     .410000000000D+02  .770312500000D+02  .374622747398D-08 -.140295015014D+01
     .395998358727D-05  .511842605192D-02  .129677355289D-04  .515356485367D+04
     .316800000000D+06  .143423676491D-06 -.238021776140D+01 -.782310962677D-07
     .978760884885D+00  .139156250000D+03  .695337118462D+00 -.766674792225D-08
     .183936233111D-09  .100000000000D+01  .188300000000D+04  .000000000000D+00
     .240000000000D+01  .000000000000D+00  .558793544769D-08  .410000000000D+02
     .309606000000D+06  .400000000000D+01
26 16  2 10 16  0  0.0 -.248770695180D-03 -.158024704433D-10  .000000000000D+00
     .900000000000D+01  .665312500000D+02  .420017495415D-08 -.196417379287D+01
     .350549817085D-05  .831830082461D-03  .122804194689D-04  .515371019173D+04
     .316800000000D+06 -.558793544769D-08 -.238731383718D+01  .726431608200D-07
     .960780942897D+00  .145875000000D+03 -.125245750565D+00 -.787354225035D-08
     .230009580822D-09  .100000000000D+01  .188300000000D+04  .000000000000D+00
     .240000000000D+01  .000000000000D+00  .698491930962D-08  .900000000000D+01
     .309606000000D+06  .400000000000D+01
27 16  2 10 16  0  0.0  .615473836660D-04  .352429196937D-11  .000000000000D+00
     .178000000000D+03  .481562500000D+02  .468626663039D-08  .245370533865D+01
     .255182385445D-05  .317498145159D-02  .215694308281D-05  .515363031387D+04
     .316800000000D+06 -.968575477600D-07 -.133784726152D+01  .372529029846D-07
     .969866824263D+00  .340656250000D+03  .205501573908D+00 -.847249577060D-08
     .328585115460D-09  .100000000000D+01  .188300000000D+04  .000000000000D+00
     .240000000000D+01  .000000000000D+00  .139698386192D-08  .178000000000D+03
     .309606000000D+06  .400000000000D+01
28 16  2 10 16  0  0.0  .501479022205D-03  .261479726760D-11  .000000000000D+00
     .140000000000D+03  .105718750000D+03  .343657171843D-08 -.311795053106D+01
     .537745654583D-05  .199448585045D-01  .116638839245D-04  .515362909126D+04
     .316800000000D+06  .189989805222D-06 -.230676068890D+01 -.130385160446D-07
     .989600001887D+00  .165718750000D+03 -.162325040292D+01 -.722672959372D-08
     .285369029623D-09  .100000000000D+01  .188300000000D+04  .000000000000D+00
     .240000000000D+01  .000000000000D+00 -.107102096081D-07  .140000000000D+03
     .309606000000D+06  .400000000000D+01
29 16  2 10 16  0  0.0  .653922557831D-03  .682121026330D-12  .000000000000D+00
     .900000000000D+01  .326562500000D+02  .461947813409D-08 -.129931490193D+01
     .173039734364D-05  .103768985718D-02  .246614217758D-05  .515361049843D+04
     .316800000000D+06 -.614672899246D-07 -.127891245977D+01 -.745058059692D-08
     .975874058900D+00  .340312500000D+03 -.564490686971D+00 -.843892294359D-08
     .282511767749D-09  .100000000000D+01  .188300000000D+04  .000000000000D+00
     .240000000000D+01  .000000000000D+00 -.102445483208D-07  .900000000000D+01
     .309606000000D+06  .400000000000D+01
31 16  2 10 16  0  0.0  .283261761069D-03 -.159161572810D-11  .000000000000D+00
     .590000000000D+02 -.628125000000D+02  .434089510142D-08 -.474027190347D+00
    -.334903597832D-05  .834555679467D-02  .905245542526D-05  .515368818474D+04
     .316800000000D+06  .670552253723D-07  .288824645069D+01 -.221654772758D-06
     .972602712213D+00  .213093750000D+03 -.433435173766D+00 -.807747931658D-08
    -.671813698023D-09  .100000000000D+01  .188300000000D+04  .000000000000D+00
     .240000000000D+01  .000000000000D+00 -.135041773319D-07  .590000000000D+02
     .309606000000D+06  .400000000000D+01
32 16  2 10 16  0  0.0  .000000000000D+00  .000000000000D+00  .000000000000D+00
     .130000000000D+02  .369375000000D+02  .500020827875D-08 -.279044944814D+01
     .186264514923D-05  .156730879098D-03  .383332371712D-05  .517914404678D+04
     .316800000000D+06 -.931322574615D-08  .180202257635D+01 -.558793544769D-08
     .959815997743D+00  .299562500000D+03 -.590073712653D-02 -.825034365993D-08
     .183579075377D-09  .100000000000D+01  .188300000000D+04  .000000000000D+00
     .240000000000D+01  .630000000000D+02  .279396772385D-08  .130000000000D+02
     .309606000000D+06  .400000000000D+01
